IDEFIX & ARIANE 42P R/B 
1 27422U 02021B   25361.33705858  .00000373  00000+0  15833-3 0  9993
2 27422  98.5804 295.8397 0012692  44.2047 316.0147 14.30961030233677
AQUA                    
1 27424U 02022A   25360.99159258  .00001315  00000+0  27355-3 0  9993
2 27424  98.4058 322.1038 0001849  99.7002 302.1298 14.61764548258111
CZ-4B R/B               
1 27432U 02024C   25361.41910605  .00000046  00000+0  46897-4 0  9996
2 27432  98.8979  50.1382 0049451 227.4591 143.0693 14.14530846219028
CZ-4B R/B               
1 28059U 03049C   25361.45052726  .00000518  00000+0  13032-3 0  9993
2 28059  98.6800 348.5709 0049404  92.0854 268.6001 14.54923735176091
CZ-2C R/B               
1 28222U 04012C   25361.08009628  .00047921  00000+0  66836-3 0  9997
2 28222  97.7395  54.8950 0016670 214.7570 145.2597 15.56602786192950
CZ-4B R/B               
1 28415U 04035C   25361.10446418  .00010332  00000+0  37972-3 0  9996
2 28415  97.3598  31.2575 0031867 224.1058 135.7640 15.27607937168821
CZ-2C R/B               
1 28480U 04046B   25361.19315809  .00000349  00000+0  14481-3 0  9995
2 28480  98.1997 275.6734 0139776   9.7750 350.6100 14.26949738 98164
ARIANE 5 R/B            
1 28499U 04049H   25361.47611071  .00001536  00000+0  17613-3 0  9998
2 28499  98.2531 162.2867 0083594 224.6053 134.8414 14.85051254135071
CZ-2D R/B               
1 28738U 05024B   25361.02080426  .00036893  00000+0  56968-3 0  9993
2 28738  97.3631   8.8497 0003316 303.9804  56.1134 15.54032763128473
